NORAD_CAT_ID,OBJECT_NAME,OBJECT_TYPE,EPOCH,MEAN_MOTION,ECCENTRICITY,INCLINATION,RA_OF_ASC_NODE,ARG_OF_PERICENTER,MEAN_ANOMALY,BSTAR,MEAN_MOTION_DOT,MEAN_MOTION_DDOT,TLE_LINE0,TLE_LINE1,TLE_LINE2,SEMIMAJOR_AXIS,PERIOD,APOGEE,PERIGEE,DECAYED
54060.0,STARLINK-5169,PAYLOAD,2024-03-22 14:26:46,15.08849893,0.0001578,53.2164,292.9089,98.0825,262.0346,0.00034059,5.138e-05,0.0,0 STARLINK-5169,1 54060U 22136K   24082.60192529  .00005138  00000-0  34059-3 0  9990,2 54060  53.2164 292.9089 0001578  98.0825 262.0346 15.08849893 79015,6917.85,95.437,540.807,538.624,0.0
54060.0,STARLINK-5169,PAYLOAD,2024-03-22 19:12:55,15.08842048,0.0001624,53.2168,292.0134,123.2719,236.8429,0.00014905,2.085e-05,0.0,0 STARLINK-5169,1 54060U 22136K   24082.80064552  .00002085  00000-0  14905-3 0  9992,2 54060  53.2168 292.0134 0001624 123.2719 236.8429 15.08842048 79528,6917.874,95.437,540.863,538.616,0.0
54060.0,STARLINK-5169,PAYLOAD,2024-03-23 20:39:06,15.08841402,0.0001203,53.2171,287.2605,99.1785,260.9343,-1.2511e-05,-4.87e-06,0.0,0 STARLINK-5169,1 54060U 22136K   24083.86049100 -.00000487  00000-0 -12511-4 0  9999,2 54060  53.2171 287.2605 0001203  99.1785 260.9343 15.08841402 79681,6917.876,95.437,540.573,538.909,0.0
54060.0,STARLINK-5169,PAYLOAD,2024-03-24 06:11:23,15.08868162,0.0001556,53.2172,285.475,136.6381,223.4734,-0.00010699,-1.992e-05,0.0,0 STARLINK-5169,1 54060U 22136K   24084.25791150 -.00001992  00000-0 -10699-3 0  9998,2 54060  53.2172 285.4750 0001556 136.6381 223.4734 15.08868162 79740,6917.794,95.436,540.736,538.583,0.0
54060.0,STARLINK-5169,PAYLOAD,2024-03-24 20:29:53,15.08844454,9.07e-05,53.215,282.7982,98.4695,261.64,0.00025364,3.752e-05,0.0,0 STARLINK-5169,1 54060U 22136K   24084.85408972  .00003752  00000-0  25364-3 0  9990,2 54060  53.2150 282.7982 0000907  98.4695 261.6400 15.08844454 79837,6917.867,95.437,540.359,539.104,0.0
54060.0,STARLINK-5169,PAYLOAD,2024-03-24 22:05:16,15.08847707,0.0001164,53.2162,282.5016,110.8671,249.2446,0.00028631,4.273e-05,0.0,0 STARLINK-5169,1 54060U 22136K   24084.92032784  .00004273  00000-0  28631-3 0  9991,2 54060  53.2162 282.5016 0001164 110.8671 249.2446 15.08847707 79369,6917.857,95.437,540.527,538.917,0.0
54060.0,STARLINK-5169,PAYLOAD,2024-03-25 06:02:11,15.08854985,0.0001366,53.2147,281.014,80.5018,279.6129,0.00034231,5.166e-05,0.0,0 STARLINK-5169,1 54060U 22136K   24085.25152289  .00005166  00000-0  34231-3 0  9996,2 54060  53.2147 281.0140 0001366  80.5018 279.6129 15.08854985 79895,6917.835,95.437,540.645,538.755,0.0
54060.0,STARLINK-5169,PAYLOAD,2024-03-25 20:20:41,15.08829076,0.00012,53.2155,278.336,78.4486,281.6641,-0.00011251,-2.077e-05,0.0,0 STARLINK-5169,1 54060U 22136K   24085.84769726 -.00002077  00000-0 -11251-3 0  9998,2 54060  53.2155 278.3360 0001200  78.4486 281.6641 15.08829076 79984,6917.914,95.438,540.609,538.949,0.0
54060.0,STARLINK-5169,PAYLOAD,2024-03-26 12:14:32,15.08832178,0.0001187,53.2152,275.3654,83.9278,276.185,0.00016951,2.41e-05,0.0,0 STARLINK-5169,1 54060U 22136K   24086.51010101  .00002410  00000-0  16951-3 0  9990,2 54060  53.2152 275.3654 0001187  83.9278 276.1850 15.08832178 79605,6917.904,95.438,540.59,538.948,0.0
54060.0,STARLINK-5169,PAYLOAD,2024-03-26 18:36:05,15.08831526,0.0001039,53.2142,274.1752,76.6313,283.4795,0.00016605,2.355e-05,0.0,0 STARLINK-5169,1 54060U 22136K   24086.77506281  .00002355  00000-0  16605-3 0  9991,2 54060  53.2142 274.1752 0001039  76.6313 283.4795 15.08831526 79644,6917.906,95.438,540.49,539.053,0.0
54060.0,STARLINK-5169,PAYLOAD,2024-03-27 12:05:19,15.08838993,0.0001522,53.2146,270.9021,92.9717,267.1449,0.00015107,2.117e-05,0.0,0 STARLINK-5169,1 54060U 22136K   24087.50370199  .00002117  00000-0  15107-3 0  9992,2 54060  53.2146 270.9021 0001522  92.9717 267.1449 15.08838993 80234,6917.883,95.438,540.801,538.696,0.0
54060.0,STARLINK-5169,PAYLOAD,2024-03-27 18:26:52,15.08838553,0.0001408,53.2152,269.7129,93.1917,266.9236,0.00030878,4.63e-05,0.0,0 STARLINK-5169,1 54060U 22136K   24087.76866346  .00004630  00000-0  30878-3 0  9998,2 54060  53.2152 269.7129 0001408  93.1917 266.9236 15.08838553 79796,6917.885,95.438,540.724,538.776,0.0
54060.0,STARLINK-5169,PAYLOAD,2024-03-28 11:56:06,15.08848738,0.0002121,53.2139,266.4428,86.188,273.9355,0.00030849,4.626e-05,0.0,0 STARLINK-5169,1 54060U 22136K   24088.49730246  .00004626  00000-0  30849-3 0  9991,2 54060  53.2139 266.4428 0002121  86.1880 273.9355 15.08848738 79900,6917.854,95.437,541.186,538.251,0.0
54060.0,STARLINK-5169,PAYLOAD,2024-03-28 18:17:39,15.08844379,0.0001789,53.2138,265.2531,87.665,272.4547,0.00017536,2.504e-05,0.0,0 STARLINK-5169,1 54060U 22136K   24088.76226267  .00002504  00000-0  17536-3 0  9995,2 54060  53.2138 265.2531 0001789  87.6650 272.4547 15.08844379 80424,6917.867,95.437,540.97,538.494,0.0
54060.0,STARLINK-5169,PAYLOAD,2024-03-29 11:46:53,15.08842308,0.0001773,53.2167,261.9816,95.3793,264.7401,0.00014931,2.089e-05,0.0,0 STARLINK-5169,1 54060U 22136K   24089.49090166  .00002089  00000-0  14931-3 0  9997,2 54060  53.2167 261.9816 0001773  95.3793 264.7401 15.08842308 80054,6917.873,95.437,540.965,538.512,0.0
54060.0,STARLINK-5169,PAYLOAD,2024-03-30 03:40:45,15.08846448,0.0001609,53.2164,259.0097,90.6521,269.4656,0.00013041,1.788e-05,0.0,0 STARLINK-5169,1 54060U 22136K   24090.15329942  .00001788  00000-0  13041-3 0  9995,2 54060  53.2164 259.0097 0001609  90.6521 269.4656 15.08846448 80632,6917.861,95.437,540.839,538.613,0.0
54060.0,STARLINK-5169,PAYLOAD,2024-03-30 11:37:41,15.08839821,0.0001868,53.2205,257.5232,94.2356,265.885,0.00023265,3.416e-05,0.0,0 STARLINK-5169,1 54060U 22136K   24090.48450362  .00003416  00000-0  23265-3 0  9991,2 54060  53.2205 257.5232 0001868  94.2356 265.8850 15.08839821 80201,6917.881,95.438,541.038,538.454,0.0
54060.0,STARLINK-5169,PAYLOAD,2024-03-30 17:59:13,15.08840617,0.000206,53.2149,256.3333,90.8349,269.2879,4.9217e-05,4.95e-06,0.0,0 STARLINK-5169,1 54060U 22136K   24090.74946207  .00000495  00000-0  49217-4 0  9998,2 54060  53.2149 256.3333 0002060  90.8349 269.2879 15.08840617 80727,6917.879,95.438,541.169,538.318,0.0
54060.0,STARLINK-5169,PAYLOAD,2024-03-31 14:39:13,15.08849291,0.0001527,53.2204,252.4697,97.4132,262.7033,-1.742e-05,-5.65e-06,0.0,0 STARLINK-5169,1 54060U 22136K   24091.61057575 -.00000565  00000-0 -17420-4 0  9997,2 54060  53.2204 252.4697 0001527  97.4132 262.7033 15.08849291 80377,6917.852,95.437,540.773,538.661,0.0
54060.0,STARLINK-5169,PAYLOAD,2024-03-31 17:50:00,15.08847154,0.0001593,53.2163,251.8739,90.451,269.6664,0.00015874,2.24e-05,0.0,0 STARLINK-5169,1 54060U 22136K   24091.74305680  .00002240  00000-0  15874-3 0  9994,2 54060  53.2163 251.8739 0001593  90.4510 269.6664 15.08847154 80391,6917.859,95.437,540.826,538.622,0.0
54060.0,STARLINK-5169,PAYLOAD,2024-04-01 03:22:18,15.08848171,0.0001567,53.2171,250.0896,92.445,267.6722,0.00018769,2.701e-05,0.0,0 STARLINK-5169,1 54060U 22136K   24092.14049312  .00002701  00000-0  18769-3 0  9994,2 54060  53.2171 250.0896 0001567  92.4450 267.6722 15.08848171 80934,6917.855,95.437,540.804,538.636,0.0
54060.0,STARLINK-5169,PAYLOAD,2024-04-01 11:19:16,15.08824013,0.0001556,53.2179,248.6026,96.6992,263.4177,-1.2103e-05,-4.8e-06,0.0,0 STARLINK-5169,1 54060U 22136K   24092.47171445 -.00000480  00000-0 -12103-4 0  9994,2 54060  53.2179 248.6026 0001556  96.6992 263.4177 15.08824013 80987,6917.929,95.439,540.871,538.718,0.0
54060.0,STARLINK-5169,PAYLOAD,2024-04-01 14:30:02,15.08826833,0.0001553,53.2202,248.0096,100.2737,259.843,1.5923e-05,-3.5e-07,0.0,0 STARLINK-5169,1 54060U 22136K   24092.60419311 -.00000035  00000-0  15923-4 0  9994,2 54060  53.2202 248.0096 0001553 100.2737 259.8430 15.08826833 80524,6917.921,95.438,540.86,538.711,0.0
54060.0,STARLINK-5169,PAYLOAD,2024-04-01 20:51:34,15.08833491,0.0001656,53.2181,246.8158,88.1238,271.9944,-4.706e-05,-1.037e-05,0.0,0 STARLINK-5169,1 54060U 22136K   24092.86914462 -.00001037  00000-0 -47060-4 0  9990,2 54060  53.2181 246.8158 0001656  88.1238 271.9944 15.08833491 81040,6917.9,95.438,540.911,538.62,0.0
54060.0,STARLINK-5169,PAYLOAD,2024-04-02 09:34:39,15.0883549,0.0001357,53.217,244.4399,90.1963,269.9184,6.295e-05,7.14e-06,0.0,0 STARLINK-5169,1 54060U 22136K   24093.39906523  .00000714  00000-0  62950-4 0  9992,2 54060  53.2170 244.4399 0001357  90.1963 269.9184 15.08835490 80644,6917.894,95.438,540.698,538.82,0.0
54060.0,STARLINK-5169,PAYLOAD,2024-04-02 15:56:11,15.08836104,0.0001413,53.2172,243.2501,88.0404,272.075,-8.4723e-06,-4.23e-06,0.0,0 STARLINK-5169,1 54060U 22136K   24093.66402630 -.00000423  00000-0 -84723-5 0  9994,2 54060  53.2172 243.2501 0001413  88.0404 272.0750 15.08836104 80688,6917.892,95.438,540.735,538.78,0.0
54060.0,STARLINK-5169,PAYLOAD,2024-04-03 20:33:04,15.08875233,0.0001475,53.2158,237.8956,103.4364,256.6793,0.00041845,6.384e-05,0.0,0 STARLINK-5169,1 54060U 22136K   24094.85630376  .00006384  00000-0  41845-3 0  9992,2 54060  53.2158 237.8956 0001475 103.4364 256.6793 15.08875233 81345,6917.773,95.435,540.658,538.617,0.0
54060.0,STARLINK-5169,PAYLOAD,2024-04-04 02:54:38,15.08846969,0.0001466,53.2168,236.708,83.3654,276.7505,-5.1986e-05,-1.115e-05,0.0,0 STARLINK-5169,1 54060U 22136K   24095.12128011 -.00001115  00000-0 -51986-4 0  9998,2 54060  53.2168 236.7080 0001466  83.3654 276.7505 15.08846969 81382,6917.859,95.437,540.738,538.71,0.0
54060.0,STARLINK-5169,PAYLOAD,2024-04-04 09:16:11,15.08835965,0.0001932,53.2139,235.5187,85.8976,274.2237,-0.00018946,-3.302e-05,0.0,0 STARLINK-5169,1 54060U 22136K   24095.38624581 -.00003302  00000-0 -18946-3 0  9997,2 54060  53.2139 235.5187 0001932  85.8976 274.2237 15.08835965 81421,6917.893,95.438,541.094,538.421,0.0
54060.0,STARLINK-5169,PAYLOAD,2024-04-04 15:37:44,15.08824348,0.0001647,53.2144,234.3236,106.7665,253.3508,-0.00023013,-3.947e-05,0.0,0 STARLINK-5169,1 54060U 22136K   24095.65120553 -.00003947  00000-0 -23013-3 0  9993,2 54060  53.2144 234.3236 0001647 106.7665 253.3508 15.08824348 80982,6917.928,95.439,540.933,538.654,0.0
